NORAD_CAT_ID,OBJECT_NAME,OBJECT_TYPE,EPOCH,MEAN_MOTION,ECCENTRICITY,INCLINATION,RA_OF_ASC_NODE,ARG_OF_PERICENTER,MEAN_ANOMALY,BSTAR,MEAN_MOTION_DOT,MEAN_MOTION_DDOT,TLE_LINE0,TLE_LINE1,TLE_LINE2,SEMIMAJOR_AXIS,PERIOD,APOGEE,PERIGEE,DECAYED
52671.0,STARLINK-4071,PAYLOAD,2023-09-11 08:56:08,15.08836471,0.0001404,53.2167,280.6958,92.2361,267.8792,5.7896e-05,6.34e-06,0.0,0 STARLINK-4071,1 52671U 22053R   23254.37232590  .00000634  00000-0  57896-4 0  9992,2 52671  53.2167 280.6958 0001404  92.2361 267.8792 15.08836471 73618,6917.891,95.438,540.727,538.785,0.0
52671.0,STARLINK-4071,PAYLOAD,2023-09-12 08:46:55,15.08846872,0.0001406,53.2167,276.2355,95.1984,264.9168,0.00014342,1.996e-05,0.0,0 STARLINK-4071,1 52671U 22053R   23255.36591874  .00001996  00000-0  14342-3 0  9995,2 52671  53.2167 276.2355 0001406  95.1984 264.9168 15.08846872 73346,6917.859,95.437,540.697,538.752,0.0
52671.0,STARLINK-4071,PAYLOAD,2023-09-12 11:57:41,15.0884986,0.0001408,53.2167,275.6405,94.3989,265.7164,0.00014488,2.019e-05,0.0,0 STARLINK-4071,1 52671U 22053R   23255.49839647  .00002019  00000-0  14488-3 0  9990,2 52671  53.2167 275.6405 0001408  94.3989 265.7164 15.08849860 73786,6917.85,95.437,540.689,538.741,0.0
52671.0,STARLINK-4071,PAYLOAD,2023-09-13 10:13:05,15.08848715,0.0001521,53.2161,271.4791,100.3521,259.7643,0.00024549,3.622e-05,0.0,0 STARLINK-4071,1 52671U 22053R   23256.42575805  .00003622  00000-0  24549-3 0  9997,2 52671  53.2161 271.4791 0001521 100.3521 259.7643 15.08848715 73501,6917.854,95.437,540.771,538.667,0.0
52671.0,STARLINK-4071,PAYLOAD,2023-09-13 13:23:51,15.08852558,0.000147,53.2158,270.8829,93.1869,266.9292,0.00026359,3.911e-05,0.0,0 STARLINK-4071,1 52671U 22053R   23256.55823565  .00003911  00000-0  26359-3 0  9992,2 52671  53.2158 270.8829 0001470  93.1869 266.9292 15.08852558 73947,6917.842,95.437,540.724,538.69,0.0
52671.0,STARLINK-4071,PAYLOAD,2023-09-13 18:10:01,15.0883269,0.0001338,53.2161,269.992,90.2908,269.8237,-4.7541e-05,-1.044e-05,0.0,0 STARLINK-4071,1 52671U 22053R   23256.75696538 -.00001044  00000-0 -47541-4 0  9996,2 52671  53.2161 269.9920 0001338  90.2908 269.8237 15.08832690 73550,6917.903,95.438,540.693,538.842,0.0
52671.0,STARLINK-4071,PAYLOAD,2023-09-14 08:28:30,15.08828291,0.0001545,53.2161,267.3131,90.1397,269.9772,-0.00012007,-2.198e-05,0.0,0 STARLINK-4071,1 52671U 22053R   23257.35313167 -.00002198  00000-0 -12007-3 0  9996,2 52671  53.2161 267.3131 0001545  90.1397 269.9772 15.08828291 74061,6917.916,95.438,540.85,538.712,0.0
52671.0,STARLINK-4071,PAYLOAD,2023-09-14 18:00:49,15.08834082,0.0001617,53.2169,265.53,85.5528,274.5648,4.019e-05,3.52e-06,0.0,0 STARLINK-4071,1 52671U 22053R   23257.75057239  .00000352  00000-0  40190-4 0  9998,2 52671  53.2169 265.5300 0001617  85.5528 274.5648 15.08834082 74127,6917.898,95.438,540.882,538.645,0.0
52671.0,STARLINK-4071,PAYLOAD,2023-09-15 00:22:22,15.0883551,0.0001598,53.2167,264.34,84.2308,275.8867,0.00011187,1.493e-05,0.0,0 STARLINK-4071,1 52671U 22053R   23258.01553317  .00001493  00000-0  11187-3 0  9996,2 52671  53.2167 264.3400 0001598  84.2308 275.8867 15.08835510 73744,6917.894,95.438,540.865,538.654,0.0
52671.0,STARLINK-4071,PAYLOAD,2023-09-15 06:43:54,15.08840871,0.0001558,53.216,263.1507,84.8475,275.2695,0.00025195,3.724e-05,0.0,0 STARLINK-4071,1 52671U 22053R   23258.28049204  .00003724  00000-0  25195-3 0  9993,2 52671  53.2160 263.1507 0001558  84.8475 275.2695 15.08840871 74200,6917.878,95.437,540.821,538.665,0.0
52671.0,STARLINK-4071,PAYLOAD,2023-09-16 09:45:27,15.08855868,0.0001577,53.2158,258.0948,84.2759,275.8413,0.00050242,7.72e-05,0.0,0 STARLINK-4071,1 52671U 22053R   23259.40656845  .00007720  00000-0  50242-3 0  9994,2 52671  53.2158 258.0948 0001577  84.2759 275.8413 15.08855868 73956,6917.832,95.437,540.788,538.606,0.0
52671.0,STARLINK-4071,PAYLOAD,2023-09-16 11:20:50,15.08857266,0.0001574,53.2158,257.7973,84.8304,275.2868,0.00050443,7.753e-05,0.0,0 STARLINK-4071,1 52671U 22053R   23259.47280743  .00007753  00000-0  50443-3 0  9990,2 52671  53.2158 257.7973 0001574  84.8304 275.2868 15.08857266 74389,6917.828,95.436,540.781,538.604,0.0
52671.0,STARLINK-4071,PAYLOAD,2023-09-17 00:03:55,15.08849932,0.0002048,53.2165,255.4197,72.2524,287.8692,0.00022432,3.285e-05,0.0,0 STARLINK-4071,1 52671U 22053R   23260.00272880  .00003285  00000-0  22432-3 0  9997,2 52671  53.2165 255.4197 0002048  72.2524 287.8692 15.08849932 74040,6917.85,95.437,541.132,538.298,0.0
52671.0,STARLINK-4071,PAYLOAD,2023-09-17 09:36:14,15.08853841,0.0001645,53.2165,253.6325,98.8572,261.2606,0.00037299,5.655e-05,0.0,0 STARLINK-4071,1 52671U 22053R   23260.40016746  .00005655  00000-0  37299-3 0  9998,2 52671  53.2165 253.6325 0001645  98.8572 261.2606 15.08853841 74520,6917.838,95.437,540.841,538.565,0.0
52671.0,STARLINK-4071,PAYLOAD,2023-09-17 23:54:42,15.08846011,0.0001625,53.2164,250.9559,99.9959,260.1217,0.0001864,2.68e-05,0.0,0 STARLINK-4071,1 52671U 22053R   23260.99632777  .00002680  00000-0  18640-3 0  9994,2 52671  53.2164 250.9559 0001625  99.9959 260.1217 15.08846011 74197,6917.862,95.437,540.851,538.603,0.0
52671.0,STARLINK-4071,PAYLOAD,2023-09-18 07:51:38,15.08849254,0.0001562,53.217,249.471,90.885,269.2321,0.00028828,4.304e-05,0.0,0 STARLINK-4071,1 52671U 22053R   23261.32752615  .00004304  00000-0  28828-3 0  9990,2 52671  53.2170 249.4710 0001562  90.8850 269.2321 15.08849254 74666,6917.852,95.437,540.798,538.637,0.0
52671.0,STARLINK-4071,PAYLOAD,2023-09-18 15:48:34,15.08845724,0.0001569,53.217,247.9844,93.6122,266.505,0.00019083,2.751e-05,0.0,0 STARLINK-4071,1 52671U 22053R   23261.65872769  .00002751  00000-0  19083-3 0  9996,2 52671  53.2170 247.9844 0001569  93.6122 266.5050 15.08845724 74710,6917.863,95.437,540.813,538.642,0.0
52671.0,STARLINK-4071,PAYLOAD,2023-09-19 02:56:16,15.08844686,0.0001435,53.2172,245.9019,87.6443,272.4714,0.00018509,2.659e-05,0.0,0 STARLINK-4071,1 52671U 22053R   23262.12240769  .00002659  00000-0  18509-3 0  9997,2 52671  53.2172 245.9019 0001435  87.6443 272.4714 15.08844686 74365,6917.866,95.437,540.724,538.738,0.0
52671.0,STARLINK-4071,PAYLOAD,2023-09-20 04:22:26,15.08840275,0.0001602,53.2168,241.1448,94.7617,265.3559,4.4683e-05,4.23e-06,0.0,0 STARLINK-4071,1 52671U 22053R   23263.18224900  .00000423  00000-0  44683-4 0  9993,2 52671  53.2168 241.1448 0001602  94.7617 265.3559 15.08840275 74528,6917.88,95.438,540.853,538.636,0.0
52671.0,STARLINK-4071,PAYLOAD,2023-09-20 07:33:12,15.08841889,0.0001632,53.2176,240.5511,92.6035,267.5144,6.4887e-05,7.45e-06,0.0,0 STARLINK-4071,1 52671U 22053R   23263.31472839  .00000745  00000-0  64887-4 0  9999,2 52671  53.2176 240.5511 0001632  92.6035 267.5144 15.08841889 74969,6917.875,95.437,540.869,538.611,0.0
52671.0,STARLINK-4071,PAYLOAD,2023-09-21 02:37:51,15.08828573,0.0001667,53.2175,236.9812,89.676,270.4424,-5.8625e-05,-1.221e-05,0.0,0 STARLINK-4071,1 52671U 22053R   23264.10961866 -.00001221  00000-0 -58625-4 0  9995,2 52671  53.2175 236.9812 0001667  89.6760 270.4424 15.08828573 74666,6917.915,95.438,540.934,538.627,0.0
52671.0,STARLINK-4071,PAYLOAD,2023-09-21 10:34:46,15.08833857,0.0001617,53.2174,235.4945,90.216,269.9018,-5.618e-05,-1.182e-05,0.0,0 STARLINK-4071,1 52671U 22053R   23264.44081793 -.00001182  00000-0 -56180-4 0  9994,2 52671  53.2174 235.4945 0001617  90.2160 269.9018 15.08833857 75139,6917.899,95.438,540.883,538.646,0.0
52671.0,STARLINK-4071,PAYLOAD,2023-09-21 21:42:28,15.08833815,0.0001565,53.2181,233.4124,97.2169,262.9001,9.8423e-05,1.279e-05,0.0,0 STARLINK-4071,1 52671U 22053R   23264.90450155  .00001279  00000-0  98423-4 0  9998,2 52671  53.2181 233.4124 0001565  97.2169 262.9001 15.08833815 75209,6917.899,95.438,540.847,538.682,0.0
52671.0,STARLINK-4071,PAYLOAD,2023-09-22 04:04:00,15.08845426,0.0001291,53.2165,232.2235,94.7149,265.3991,0.00011517,1.546e-05,0.0,0 STARLINK-4071,1 52671U 22053R   23265.16945401  .00001546  00000-0  11517-3 0  9995,2 52671  53.2165 232.2235 0001291  94.7149 265.3991 15.08845426 74820,6917.864,95.437,540.622,538.836,0.0
52671.0,STARLINK-4071,PAYLOAD,2023-09-22 07:14:46,15.08850484,0.0001478,53.2173,231.6284,97.5346,262.5814,0.00016145,2.283e-05,0.0,0 STARLINK-4071,1 52671U 22053R   23265.30193035  .00002283  00000-0  16145-3 0  9990,2 52671  53.2173 231.6284 0001478  97.5346 262.5814 15.08850484 75265,6917.848,95.437,540.736,538.691,0.0
52671.0,STARLINK-4071,PAYLOAD,2023-09-23 02:19:25,15.08839614,0.000137,53.2171,228.0598,95.3711,264.7437,0.00015555,2.188e-05,0.0,0 STARLINK-4071,1 52671U 22053R   23266.09681914  .00002188  00000-0  15555-3 0  9993,2 52671  53.2171 228.0598 0001370  95.3711 264.7437 15.08839614 74967,6917.882,95.438,540.694,538.799,0.0
52671.0,STARLINK-4071,PAYLOAD,2023-09-23 03:54:48,15.08843397,0.0001444,53.2156,227.7628,95.3177,264.798,0.00020361,2.954e-05,0.0,0 STARLINK-4071,1 52671U 22053R   23266.16305806  .00002954  00000-0  20361-3 0  9996,2 52671  53.2156 227.7628 0001444  95.3177 264.7980 15.08843397 75392,6917.87,95.437,540.734,538.736,0.0
52671.0,STARLINK-4071,PAYLOAD,2023-09-24 03:45:34,15.08848074,0.0001349,53.2164,223.3004,91.9271,268.1876,7.2484e-05,8.66e-06,0.0,0 STARLINK-4071,1 52671U 22053R   23267.15665364  .00000866  00000-0  72484-4 0  9998,2 52671  53.2164 223.3004 0001349  91.9271 268.1876 15.08848074 75122,6917.856,95.437,540.654,538.787,0.0
52671.0,STARLINK-4071,PAYLOAD,2023-09-25 03:36:21,15.08845475,0.0001307,53.2168,218.8419,92.8005,267.3137,8.7351e-05,1.103e-05,0.0,0 STARLINK-4071,1 52671U 22053R   23268.15025446  .00001103  00000-0  87351-4 0  9994,2 52671  53.2168 218.8419 0001307  92.8005 267.3137 15.08845475 75273,6917.864,95.437,540.633,538.824,0.0
52671.0,STARLINK-4071,PAYLOAD,2023-09-25 06:47:08,15.08849278,0.0001323,53.2158,218.2461,91.3738,268.7405,0.00017838,2.553e-05,0.0,0 STARLINK-4071,1 52671U 22053R   23268.28273309  .00002553  00000-0  17838-3 0  9993,2 52671  53.2158 218.2461 0001323  91.3738 268.7405 15.08849278 75715,6917.852,95.437,540.632,538.802,0.0
